IRIDIUM 144             
1 43249U 18030A   24190.59175330  .00000250  00000+0  82345-4 0  9995
2 43249  86.3965 226.5189 0002583  88.8739 271.2752 14.34217947328578
IRIDIUM 149             
1 43250U 18030B   24190.59809456  .00000418  00000+0  14203-3 0  9993
2 43250  86.3963 226.4911 0002417  87.9675 272.1798 14.34216466328592
IRIDIUM 157             
1 43251U 18030C   24190.54735329  .00000101  00000+0  28997-4 0  9991
2 43251  86.3966 226.5498 0001986  91.3761 268.7662 14.34217044328563
IRIDIUM 140             
1 43252U 18030D   24190.56638233  .00000079  00000+0  21290-4 0  9993
2 43252  86.3966 226.5565 0002701  93.7774 266.3731 14.34216433328624
IRIDIUM 145             
1 43253U 18030E   24190.55369775  .00000018  00000+0 -54301-6 0  9990
2 43253  86.3969 226.5351 0002536  84.4882 275.6603 14.34217662328552
IRIDIUM 146             
1 43254U 18030F   24190.60443817  .00000015  00000+0 -18618-5 0  9994
2 43254  86.3965 226.5288 0002439  88.4280 271.7195 14.34217771328572
IRIDIUM 148             
1 43255U 18030G   24190.57272467  .00000038  00000+0  63499-5 0  9993
2 43255  86.3966 226.5743 0002172  88.6878 271.4567 14.34217826328604
IRIDIUM 142             
1 43256U 18030H   24190.54101214  .00000200  00000+0  64278-4 0  9998
2 43256  86.3966 226.5025 0002547  86.7098 273.4389 14.34217985328562
